{"spkid": "50609716", "covariance": {"data": [["3.383864875517047E-16", "-8.62364899910272E-16", "-7.939751261520575E-14", "6.341669969948189E-15", "7.303799999159063E-14", "4.341146782495989E-15", "1.448182824608195E-19", "-3.16905258728224E-23"], ["-8.62364899910272E-16", "2.210307592231422E-15", "1.994662081207407E-13", "-1.633386364060684E-14", "-1.864799133787433E-13", "-1.07712191513891E-14", "-3.735369379181171E-19", "2.175967456619877E-22"], ["-7.939751261520575E-14", "1.994662081207407E-13", "3.090515950051523E-11", "-1.910748042226198E-12", "-1.309804414774341E-11", "-2.876335683842479E-12", "-3.328440665584712E-17", "-2.039544817893247E-19"], ["6.341669969948189E-15", "-1.633386364060684E-14", "-1.910748042226198E-12", "1.08509015425604E-12", "2.701224415262954E-13", "6.114647229687028E-13", "2.787517759867123E-18", "4.746857383965421E-21"], ["7.303799999159063E-14", "-1.864799133787433E-13", "-1.309804414774341E-11", "2.701224415262954E-13", "1.807274684924435E-11", "-1.346472850355026E-13", "3.127015473181961E-17", "-7.200089726176626E-20"], ["4.341146782495989E-15", "-1.07712191513891E-14", "-2.876335683842479E-12", "6.114647229687028E-13", "-1.346472850355026E-13", "1.090943533021467E-12", "1.803599887344492E-18", "3.077152619054955E-20"], ["1.448182824608195E-19", "-3.735369379181171E-19", "-3.328440665584712E-17", "2.787517759867123E-18", "3.127015473181961E-17", "1.803599887344492E-18", "6.357409545536026E-23", "-5.708183492235427E-26"], ["-3.16905258728224E-23", "2.175967456619877E-22", "-2.039544817893247E-19", "4.746857383965421E-21", "-7.200089726176626E-20", "3.077152619054955E-20", "-5.708183492235427E-26", "4.283256955872383E-27"]], "elements": [{"label": "e", "name": "e", "sigma": 1.83952843835507e-08, "value": ".3356080368165895", "title": "eccentricity", "units": null}, {"label": "q", "sigma": 4.7013908497714e-08, "name": "q", "value": ".933924080657722", "title": "perihelion distance", "units": "au"}, {"label": "tp", "units": "TDB", "title": "time of perihelion passage", "value": "2457464.801718269842", "name": "tp", "sigma": 5.55924091045848e-06}, {"title": "longitude of the ascending node", "value": "198.2583057567126", "units": "deg", "sigma": 1.0416766073288e-06, "name": "om", "label": "node"}, {"label": "peri", "units": "deg", "title": "argument of perihelion", "value": "222.5574367989377", "name": "w", "sigma": 4.25120534075271e-06}, {"sigma": 1.04448242351007e-06, "name": "i", "units": "deg", "title": "inclination", "value": ".8559374461323124", "label": "i"}], "labels": ["e", "q", "tp", "node", "peri", "i", "A1", "A2"], "epoch": "2457196.5"}, "elements": [{"label": "e", "title": "eccentricity", "value": ".4037967014739034", "units": null, "sigma": "3.6917E-8", "name": "e"}, {"label": "a", "name": "a", "sigma": "1.1161E-7", "units": "au", "value": "1.620463632613993", "title": "semi-major axis"}, {"label": "q", "sigma": "3.2393E-8", "name": "q", "value": ".9661257629060436", "title": "perihelion distance", "units": "au"}, {"label": "i", "units": "deg", "value": ".5342598748124083", "title": "inclination; angle with respect to x-y ecliptic plane", "name": "i", "sigma": "2.0715E-6"}, {"label": "node", "name": "om", "sigma": "3.2212E-6", "units": "deg", "title": "longitude of the ascending node", "value": "19.6949573105242"}, {"name": "w", "sigma": "7.5473E-6", "value": "26.57473019342488", "title": "argument of perihelion", "units": "deg", "label": "peri"}, {"label": "M", "units": "deg", "value": "60.00072995802819", "title": "mean anomaly", "sigma": ".00017926", "name": "ma"}, {"name": "tp", "sigma": ".00036395", "title": "time of perihelion passage", "value": "2461074.922627115165", "units": "TDB", "label": "tp"}, {"sigma": "7.7844E-5", "name": "per", "title": "sidereal orbital period", "value": "753.4550707993773", "units": "d", "label": "period"}, {"value": ".4777988946548046", "title": "mean motion", "units": "deg/d", "sigma": "4.9364E-8", "name": "n", "label": "n"}, {"title": "aphelion distance", "value": "2.274801502321943", "units": "au", "name": "ad", "sigma": "1.5668E-7", "label": "Q"}], "epoch": "2461200.5"}